OBJECT_NAME,OBJECT_ID,EPOCH,MEAN_MOTION,ECCENTRICITY,INCLINATION,RA_OF_ASC_NODE,ARG_OF_PERICENTER,MEAN_ANOMALY,EPHEMERIS_TYPE,CLASSIFICATION_TYPE,NORAD_CAT_ID,ELEMENT_SET_NO,REV_AT_EPOCH,BSTAR,MEAN_MOTION_DOT,MEAN_MOTION_DDOT
SHARJAHSAT-1,2023-001CZ,2026-06-04T03:02:19.853952,15.48553014,.00068877,97.3175,223.7161,141.3143,218.8602,0,U,55104,999,19047,.4014127E-3,.21338E-3,0
HORUS 1,2023-025A,2026-06-04T06:42:26.510400,15.23460450,.00019044,97.3463,230.1445,131.7742,228.3658,0,U,55690,999,18208,.29262368E-3,.6907E-4,0
HORUS 2,2023-032A,2026-06-04T05:57:29.700288,15.23282981,.00020287,97.3535,230.9094,116.2207,243.9239,0,U,55844,999,17951,.27436465E-3,.6437E-4,0
GLOBAL-19,2023-041B,2026-06-02T19:30:51.402816,15.38861461,.00073919,42.0025,285.7177,249.6784,110.3261,0,U,55982,999,17971,.4120608E-3,.15983E-3,0
BRO-9,2023-054H,2026-06-03T07:10:49.636704,15.91575757,.00071186,97.2932,71.6576,124.3069,235.8879,0,U,56185,999,17687,.11638426E-2,.37487E-2,.55169885E-4
ION SCV-010,2023-054Q,2026-06-03T15:40:31.970784,15.26074636,.0011115,97.3796,44.3272,249.8362,110.1681,0,U,56192,999,17413,.21299E-3,.5424E-4,0
TELEOS-2,2023-057C,2026-06-03T07:01:18.663168,14.96408330,.0001114,9.9889,305.3426,186.5335,173.4864,0,U,56310,999,17071,-.22141E-3,-.1889E-4,0
SNIPE 4,2023-072B,2026-06-04T07:13:33.299040,15.41821496,.00056866,97.5258,0.9020,27.9683,332.1868,0,U,56744,999,16812,.57051046E-3,.24142E-3,0
SNIPE 2,2023-072C,2026-06-04T07:35:15.448128,15.46182705,.00054802,97.5253,3.8734,56.2916,303.8855,0,U,56745,999,16825,.62210459E-3,.30537E-3,0
2023-072G,2023-072G,2026-06-04T06:46:51.112128,15.49812680,.00042883,97.4915,2.6274,48.4210,311.7408,0,U,56749,999,16846,.57392741E-3,.31949E-3,0
GEISAT PRECURSOR,2023-084C,2026-06-04T05:49:27.789600,15.34468143,.0006198,97.6214,295.7726,43.5410,316.6320,0,U,56934,999,16554,.24940083E-3,.8247E-4,0
BLACKJACK ACES-3,2023-084U,2026-06-03T14:16:30.810720,15.18373959,.0003593,97.6202,289.6853,73.1821,286.9806,0,U,56950,999,16510,.32012E-3,.6511E-4,0
BLACKJACK ACES-2,2023-084Z,2026-06-03T08:06:42.215904,15.18428108,.00018199,97.6196,289.5098,74.9989,285.1446,0,U,56955,999,16507,.38299822E-3,.7817E-4,0
BLACKJACK ACES-1,2023-084AA,2026-06-04T02:48:17.652672,15.18428766,.00013047,97.6189,290.0695,95.5656,264.5727,0,U,56956,999,11491,.40459711E-3,.8262E-4,0
ION SCV-011,2023-084AB,2026-06-04T02:33:32.460480,15.28712300,.0008519,98.1379,341.1751,84.8496,275.3714,0,U,56957,999,16381,.22102721E-3,.6088E-4,0
GHOST-3,2023-084AC,2026-06-03T23:22:14.426976,15.47432981,.00057647,97.6204,302.8427,350.6857,9.4284,0,U,56958,999,16597,.36922078E-3,.18854E-3,0
TOMORROW-R2,2023-084AG,2026-06-04T05:53:23.104320,15.97909805,.00049986,97.5969,317.6748,253.0565,107.0164,0,U,56962,999,16698,.74258562E-3,.334497E-2,.47880062E-4
AFR-1,2023-084AJ,2026-06-04T06:29:03.640992,15.28441445,.0011126,97.6264,291.6526,32.2338,327.9579,0,U,56964,999,16525,.19699863E-3,.5384E-4,0
METEOR-M2 3,2023-091A,2026-06-04T07:27:26.924256,14.24045730,.00036049,98.6087,210.5519,190.8261,169.2841,0,U,57166,999,15268,.28372951E-4,.22E-6,0
UMKA 1 (RS40S),2023-091G,2026-06-04T04:44:01.226688,15.20660736,.00134756,97.5051,213.9455,158.8466,201.3330,0,U,57172,999,16203,.32160955E-3,.7009E-4,0
2023-091H,2023-091H,2026-06-04T05:17:49.909920,15.28341442,.00108053,97.5050,218.3102,152.8778,207.3028,0,U,57173,999,16232,.45930117E-3,.1263E-3,0
2023-091J,2023-091J,2026-06-04T07:11:09.337632,15.13834867,.00131578,97.5056,208.5800,185.6474,174.4611,0,U,57174,999,16168,.27067571E-3,.4835E-4,0
CUBEBEL 2 (EU11S),2023-091K,2026-06-04T05:25:11.301600,15.28829416,.00108116,97.5053,218.3297,154.4980,205.6795,0,U,57175,999,16232,.50188E-3,.14019E-3,0
SITRO-AIS 5 (KATYS),2023-091L,2026-06-04T05:53:28.158720,15.29144382,.00125168,97.5062,219.0244,143.5421,216.6673,0,U,57176,999,16236,.52022168E-3,.14685E-3,0
ZORKIY-2M 1,2023-091M,2026-06-04T06:00:05.961600,15.20725538,.00141123,97.5092,214.2575,156.1693,204.0198,0,U,57177,999,16203,.39124405E-3,.8562E-4,0
CUBESX-HSE 3 (RS42S),2023-091N,2026-06-04T05:35:49.761312,15.30872052,.00120446,97.5093,220.6597,134.7257,225.4967,0,U,57178,999,16244,.51751371E-3,.15408E-3,0
MONITOR-3 (RS58S),2023-091Q,2026-06-04T03:56:00.938400,15.27565922,.00128634,97.5085,218.5166,141.1958,219.0208,0,U,57180,999,16230,.44640986E-3,.11994E-3,0
MONITOR-4 (RS57S),2023-091S,2026-06-04T03:26:58.295328,15.27663555,.00128048,97.5078,218.4669,141.6583,218.5569,0,U,57182,999,16230,.46321053E-3,.12486E-3,0
MONITOR-2 (RS39S),2023-091U,2026-06-04T04:51:20.171520,15.18783513,.00120658,97.5075,213.5700,151.3600,208.8300,0,U,57184,999,16198,.27231313E-3,.5604E-4,0
SVYATOBOR 1 (RS60S),2023-091X,2026-06-04T05:04:17.058720,15.26383361,.00107125,97.5090,218.9584,133.6184,226.5944,0,U,57187,999,16233,.39089466E-3,.10113E-3,0
HORS 1,2023-091Y,2026-06-04T04:44:43.551456,15.26483373,.00101958,97.5068,218.7089,133.0301,227.1793,0,U,57188,999,16233,.41045985E-3,.10655E-3,0
VIZARD-METEO (RS38S),2023-091Z,2026-06-04T02:48:12.601728,15.35589021,.0008752,97.5093,224.3441,116.2926,243.9218,0,U,57189,999,16268,.54135836E-3,.18692E-3,0
SITRO-AIS 6 (CHIRKIN),2023-091AC,2026-06-04T06:14:55.555872,15.25676442,.00127302,97.5069,218.2265,146.6363,213.5679,0,U,57192,999,16231,.47898923E-3,.12159E-3,0
SITRO-AIS 8 (ANOKHIN),2023-091AD,2026-06-04T05:16:09.920064,15.31768845,.00117046,97.5058,220.5348,139.8166,220.3943,0,U,57193,999,16246,.54161067E-3,.16586E-3,0
SITRO-AIS 7 (FARTUSHNIY),2023-091AE,2026-06-04T06:15:41.258016,15.25370733,.00125622,97.5067,218.0586,147.5935,212.6077,0,U,57194,999,16230,.47789753E-3,.12019E-3,0
AVION KALUGA 650,2023-091AF,2026-06-04T04:41:57.085440,15.20207055,.00113003,97.5092,214.8257,149.1743,211.0158,0,U,57195,999,16205,.31051525E-3,.6671E-4,0
HORS 2,2023-091AG,2026-06-04T05:30:10.432224,15.31541536,.00095324,97.5090,222.0853,126.1096,234.1029,0,U,57196,999,16254,.50397433E-3,.15306E-3,0
A-SEANSAT-PG1,2023-091AH,2026-06-04T05:57:58.887072,15.36490364,.00086264,97.5082,224.5583,122.8984,237.3090,0,U,57197,999,16272,.58360629E-3,.20753E-3,0
SITRO-AIS 10 (BURDAEV),2023-091AK,2026-06-04T05:45:38.470176,15.38097459,.00079926,97.5081,225.4777,118.0781,242.1273,0,U,57199,999,16277,.60067075E-3,.22502E-3,0
SITRO-AIS 9 (SHCHUKIN),2023-091AM,2026-06-04T06:17:50.101152,15.37627915,.00082089,97.5080,225.2404,118.1889,242.0185,0,U,57201,999,16276,.6046684E-3,.2231E-3,0
UTMN 2 (RS27S),2023-091AP,2026-06-04T06:11:24.288000,15.31719246,.00094494,97.5089,222.3028,121.9833,238.2328,0,U,57203,999,16256,.47960559E-3,.14641E-3,0
SITRO-AIS 12 (SMIRENNIY),2023-091AQ,2026-06-04T06:07:50.214720,15.37915387,.00078493,97.5094,225.6926,113.2192,246.9880,0,U,57204,999,16278,.58532045E-3,.21792E-3,0
SITRO-AIS 11 (SHEFFER),2023-091AU,2026-06-04T06:32:14.115840,15.38328724,.00077815,97.5091,225.9484,113.0378,247.1688,0,U,57208,999,16280,.61639293E-3,.23268E-3,0
H2SAT (HEINRICH HERTZ),2023-093A,2026-06-04T03:17:58.373952,1.00272490,.00009749,0.0448,123.4904,332.0680,207.2004,0,U,57213,999,1078,0,.14E-6,0
KUZGTU 1 (RS47S),2023-091AV,2026-06-04T05:06:41.554944,15.29547520,.00121715,97.5065,219.5637,138.0553,222.1622,0,U,57217,999,16239,.48911984E-3,.13972E-3,0
QIANKUN-1,2023-103B,2026-05-31T16:15:12.115584,16.07626689,.00240549,96.1558,197.6671,142.5816,217.7151,0,U,57422,999,16464,.28012432E-4,.22767E-3,.1887657E-5
FENGYUN 3F,2023-111A,2026-06-04T06:58:15.479616,14.19936874,.00015589,98.6837,225.5391,102.7562,257.3789,0,U,57490,999,14703,.59316968E-4,.83E-6,0
METEOR 2-1 DEB,1975-064F,2026-05-27T08:46:58.329696,14.29312775,.00089226,81.2776,20.0937,110.2601,249.9540,0,U,57492,999,40001,.26148689E-2,.6671E-4,0
HJ-2F,2023-116A,2026-06-04T07:15:46.976256,15.22127761,.00105886,97.3843,160.7476,89.1515,271.0934,0,U,57519,999,15679,.40520145E-3,.9235E-4,0
XRISM,2023-137A,2026-06-02T06:36:16.681248,15.12327778,.00076942,31.0020,96.1840,175.1081,184.9634,0,U,57800,999,15060,.31044403E-3,.5615E-4,0
METEOR-M2 4,2024-039A,2026-06-04T07:27:36.065376,14.22428175,.00065293,98.7005,114.7712,198.6083,161.4857,0,U,59051,999,11743,.30466026E-4,.24E-6,0
GRBBETA,2024-128C,2026-06-03T21:06:39.763296,15.06538097,.0042441,61.9905,262.9523,131.9230,228.5494,0,U,60237,999,10426,.33246E-3,.4824E-4,0
TRANSPORTER-11 OBJECT A,2024-149A,2026-06-04T02:19:44.312160,15.32684040,.00017372,97.3731,235.0694,255.7782,104.3267,0,U,60468,999,10005,.30792035E-3,.9643E-4,0
WARATAH SEED-1,2024-149B,2026-06-04T00:21:17.877600,15.35600421,.00003345,97.3686,235.5807,231.4383,128.6830,0,U,60469,999,10009,.42975222E-3,.14804E-3,0
PHISAT 2,2024-149C,2026-06-03T04:34:42.090816,15.30847663,.0000387,97.3758,233.4871,22.1476,337.9781,0,U,60470,999,9985,.28332731E-3,.837E-4,0
LEMUR-2-TOMATOKECHUP,2024-149D,2026-06-03T05:31:21.546336,15.35726512,.0000172,97.3801,236.2448,277.6232,82.4992,0,U,60471,999,10002,.35632E-3,.12306E-3,0
CONNECTA IOT-1,2024-149E,2026-06-04T00:36:29.786400,15.23434339,.00014788,97.3757,231.5397,21.4948,338.6351,0,U,60472,999,9979,.20675619E-3,.4854E-4,0
LOPEN,2024-149F,2026-06-03T05:17:37.010400,15.39265130,.0000472,97.3778,237.4835,35.6269,324.5007,0,U,60473,999,10011,.44298E-3,.17188E-3,0
ROCK,2024-149G,2026-06-03T23:41:34.098144,15.39289776,.00002576,97.3776,238.2728,344.2354,15.8884,0,U,60474,999,10023,.43893971E-3,.17044E-3,0
CONNECTA IOT-3,2024-149H,2026-06-04T02:42:00.600480,15.23447458,.00018919,97.3733,231.3825,343.9625,16.1552,0,U,60475,999,9981,.20467641E-3,.4807E-4,0
QUBE,2024-149J,2026-06-03T04:49:03.224064,15.46541296,.0000808,97.3777,240.3719,258.4130,101.7029,0,U,60476,999,10030,.57333E-3,.28464E-3,0
WREN-1,2024-149L,2026-06-03T22:55:14.929824,15.41022159,.00029421,97.3764,238.9344,317.3936,42.7082,0,U,60478,999,10028,.55685733E-3,.22935E-3,0
TOMORROW-S1,2024-149M,2026-06-03T03:56:37.902048,15.32510214,.00011848,97.3751,234.6831,324.5506,35.5657,0,U,60479,999,9994,.27147157E-3,.8445E-4,0
